ONEWEB-0570             
1 55149U 23004K   23339.03994995  .00007948  00000+0  20114-1 0  9997
2 55149  87.9128 159.5692 0002389  92.0240 268.1165 13.18675278 47768
ONEWEB-0571             
1 55150U 23004L   23339.03366283 -.00000902  00000+0 -23198-2 0  9993
2 55150  87.9136 159.5720 0001943 117.2320 242.9011 13.18701111 47772
ONEWEB-0572             
1 55151U 23004M   23338.55299546  .00000045  00000+0  82467-4 0  9999
2 55151  87.9219 189.8784 0001994  79.6344 280.5012 13.17652899 45587
ONEWEB-0573             
1 55152U 23004N   23339.25001157 -.00007133  00000+0 -18151-1 0  9990
2 55152  87.9140 159.5786 0002660 106.7122 230.0669 13.18644359 47789
ONEWEB-0588             
1 55153U 23004P   23339.25001157  .00000013  00000+0  00000+0 0  9991
2 55153  87.9194 159.5148 0002196  86.5628 279.5015 13.19544309 47790
ONEWEB-0598             
1 55154U 23004Q   23338.14539237 -.00000263  00000+0 -77824-3 0  9995
2 55154  87.8978 205.1106 0001707 114.4349 245.6958 13.11419567 44527
ONEWEB-0599             
1 55155U 23004R   23339.12252509  .00000063  00000+0  12989-3 0  9996
2 55155  87.9220 189.7401 0001401  86.8091 273.3200 13.17645641 45665
ONEWEB-0614             
1 55156U 23004S   23338.14050964 -.00000743  00000+0 -21313-2 0  9996
2 55156  87.9007 205.1086 0001809  68.7802 291.3519 13.11419814 44467
